start=new Date('2021-11-12T00:00:00.000Z').valueOf();
sats=[{"MEAN_ELEMENT_THEORY":"SGP4","BSTAR":"0.00009938500000","TLE_LINE2":"2 47738  53.0550  89.2384 0004987 349.1215  10.9666 15.06403568 39958","PERIAPSIS":"543.749","COUNTRY_CODE":"US","GP_ID":"189526125","TLE_LINE1":"1 47738U 21017S   21315.86649244  .00001198  00000-0  99385-4 0  9992","OBJECT_TYPE":"PAYLOAD","FILE":"3212485","MEAN_ANOMALY":"10.9666","NORAD_CAT_ID":"47738","CLASSIFICATION_TYPE":"U","OBJECT_ID":"2021-017S","EPHEMERIS_TYPE":"0","LAUNCH_DATE":"2021-03-04","MEAN_MOTION_DOT":"0.00001198","CENTER_NAME":"EARTH","MEAN_MOTION":"15.06403568","REF_FRAME":"TEME","MEAN_MOTION_DDOT":"0.0000000000000","ARG_OF_PERICENTER":"349.1215","RA_OF_ASC_NODE":"89.2384","SITE":"AFETR","DECAY_DATE":null,"ECCENTRICITY":"0.00049870","OBJECT_NAME":"STARLINK-2149","PERIOD":"95.592","APOAPSIS":"550.656","REV_AT_EPOCH":"3995","SEMIMAJOR_AXIS":"6925.338","ELEMENT_SET_NO":"999","EPOCH":"2021-11-11T20:47:44.946816","RCS_SIZE":"LARGE","INCLINATION":"53.0550","TIME_SYSTEM":"UTC"},{"INCLINATION":"53.0544","TIME_SYSTEM":"UTC","EPOCH":"2021-11-11T20:20:35.061792","RCS_SIZE":"LARGE","APOAPSIS":"548.235","REV_AT_EPOCH":"3960","SEMIMAJOR_AXIS":"6925.377","ELEMENT_SET_NO":"999","PERIOD":"95.593","OBJECT_NAME":"STARLINK-2150","DECAY_DATE":null,"ECCENTRICITY":"0.00014330","REF_FRAME":"TEME","MEAN_MOTION":"15.06390631","ARG_OF_PERICENTER":"90.0729","MEAN_MOTION_DDOT":"0.0000000000000","RA_OF_ASC_NODE":"114.3189","SITE":"AFETR","MEAN_MOTION_DOT":"0.00000591","CENTER_NAME":"EARTH","LAUNCH_DATE":"2021-03-04","OBJECT_ID":"2021-017T","EPHEMERIS_TYPE":"0","FILE":"3212485","NORAD_CAT_ID":"47739","MEAN_ANOMALY":"270.0424","CLASSIFICATION_TYPE":"U","OBJECT_TYPE":"PAYLOAD","GP_ID":"189526375","TLE_LINE1":"1 47739U 21017T   21315.84762803  .00000591  00000-0  58587-4 0  9993","COUNTRY_CODE":"US","MEAN_ELEMENT_THEORY":"SGP4","BSTAR":"0.00005858700000","TLE_LINE2":"2 47739  53.0544 114.3189 0001433  90.0729 270.0424 15.06390631 39609","PERIAPSIS":"546.250"},{"OBJECT_ID":"2021-017U","EPHEMERIS_TYPE":"0","NORAD_CAT_ID":"47740","MEAN_ANOMALY":"274.9498","FILE":"3212485","CLASSIFICATION_TYPE":"U","LAUNCH_DATE":"2021-03-04","COUNTRY_CODE":"US","MEAN_ELEMENT_THEORY":"SGP4","BSTAR":"0.00009994800000","PERIAPSIS":"546.300","TLE_LINE2":"2 47740  53.0561  99.1139 0001307  85.1640 274.9498 15.06402889 39818","OBJECT_TYPE":"PAYLOAD","TLE_LINE1":"1 47740U 21017U   21315.89505815  .00001208  00000-0  99948-4 0  9990","GP_ID":"189527624","SEMIMAJOR_AXIS":"6925.340","ELEMENT_SET_NO":"999","APOAPSIS":"548.110","REV_AT_EPOCH":"3981","PERIOD":"95.592","INCLINATION":"53.0561","TIME_SYSTEM":"UTC","RCS_SIZE":"LARGE","EPOCH":"2021-11-11T21:28:53.024160","MEAN_MOTION_DOT":"0.00001208","CENTER_NAME":"EARTH","ECCENTRICITY":"0.00013070","DECAY_DATE":null,"OBJECT_NAME":"STARLINK-2152","MEAN_MOTION_DDOT":"0.0000000000000","ARG_OF_PERICENTER":"85.1640","REF_FRAME":"TEME","MEAN_MOTION":"15.06402889","RA_OF_ASC_NODE":"99.1139","SITE":"AFETR"},{"RA_OF_ASC_NODE":"99.9395","SITE":"AFETR","ARG_OF_PERICENTER":"68.8435","MEAN_MOTION_DDOT":"0.0000000000000","REF_FRAME":"TEME","MEAN_MOTION":"15.06343643","ECCENTRICITY":"0.00015340","DECAY_DATE":null,"OBJECT_NAME":"STARLINK-2154","CENTER_NAME":"EARTH","MEAN_MOTION_DOT":"-0.00006984","RCS_SIZE":"LARGE","EPOCH":"2021-11-11T17:03:33.979680","INCLINATION":"53.0556","TIME_SYSTEM":"UTC","PERIOD":"95.596","ELEMENT_SET_NO":"999","SEMIMAJOR_AXIS":"6925.521","APOAPSIS":"548.449","REV_AT_EPOCH":"3974","TLE_LINE1":"1 47741U 21017V   21315.71080995 -.00006984  00000-0 -45114-3 0  9992","GP_ID":"189527875","OBJECT_TYPE":"PAYLOAD","PERIAPSIS":"546.324","TLE_LINE2":"2 47741  53.0556  99.9395 0001534  68.8435 291.2717 15.06343643 39747","MEAN_ELEMENT_THEORY":"SGP4","BSTAR":"-0.00045114000000","COUNTRY_CODE":"US","LAUNCH_DATE":"2021-03-04","CLASSIFICATION_TYPE":"U","MEAN_ANOMALY":"291.2717","NORAD_CAT_ID":"47741","FILE":"3212485","EPHEMERIS_TYPE":"0","OBJECT_ID":"2021-017V"},{"OBJECT_ID":"2021-017W","EPHEMERIS_TYPE":"0","NORAD_CAT_ID":"47742","MEAN_ANOMALY":"278.5024","FILE":"3212485","CLASSIFICATION_TYPE":"U","LAUNCH_DATE":"2021-03-04","COUNTRY_CODE":"US","BSTAR":"-0.00004034500000","MEAN_ELEMENT_THEORY":"SGP4","PERIAPSIS":"546.305","TLE_LINE2":"2 47742  53.0574  89.2891 0001326  81.6115 278.5024 15.06396662 39959","OBJECT_TYPE":"PAYLOAD","TLE_LINE1":"1 47742U 21017W   21315.85542723 -.00000882  00000-0 -40345-4 0  9993","GP_ID":"189526623","SEMIMAJOR_AXIS":"6925.359","ELEMENT_SET_NO":"999","APOAPSIS":"548.142","REV_AT_EPOCH":"3995","PERIOD":"95.592","INCLINATION":"53.0574","TIME_SYSTEM":"UTC","RCS_SIZE":"LARGE","EPOCH":"2021-11-11T20:31:48.912672","MEAN_MOTION_DOT":"-0.00000882","CENTER_NAME":"EARTH","DECAY_DATE":null,"ECCENTRICITY":"0.00013260","OBJECT_NAME":"STARLINK-2156","MEAN_MOTION_DDOT":"0.0000000000000","ARG_OF_PERICENTER":"81.6115","MEAN_MOTION":"15.06396662","REF_FRAME":"TEME","SITE":"AFETR","RA_OF_ASC_NODE":"89.2891"},{"COUNTRY_CODE":"US","PERIAPSIS":"546.242","TLE_LINE2":"2 47743  53.0561  89.1531 0001413  81.8416 278.2734 15.06397614 39930","MEAN_ELEMENT_THEORY":"SGP4","BSTAR":"-0.00010248000000","OBJECT_TYPE":"PAYLOAD","TLE_LINE1":"1 47743U 21017X   21315.88123247 -.00001807  00000-0 -10248-3 0  9999","GP_ID":"189526873","EPHEMERIS_TYPE":"0","OBJECT_ID":"2021-017X","CLASSIFICATION_TYPE":"U","MEAN_ANOMALY":"278.2734","NORAD_CAT_ID":"47743","FILE":"3212485","LAUNCH_DATE":"2021-03-04","CENTER_NAME":"EARTH","MEAN_MOTION_DOT":"-0.00001807","ECCENTRICITY":"0.00014130","DECAY_DATE":null,"OBJECT_NAME":"STARLINK-2157","RA_OF_ASC_NODE":"89.1531","SITE":"AFETR","ARG_OF_PERICENTER":"81.8416","MEAN_MOTION_DDOT":"0.0000000000000","MEAN_MOTION":"15.06397614","REF_FRAME":"TEME","ELEMENT_SET_NO":"999","SEMIMAJOR_AXIS":"6925.356","REV_AT_EPOCH":"3993","APOAPSIS":"548.199","PERIOD":"95.592","TIME_SYSTEM":"UTC","INCLINATION":"53.0561","RCS_SIZE":"LARGE","EPOCH":"2021-11-11T21:08:58.485408"},{"LAUNCH_DATE":"2021-03-04","EPHEMERIS_TYPE":"0","OBJECT_ID":"2021-017Y","CLASSIFICATION_TYPE":"U","FILE":"3212485","NORAD_CAT_ID":"47744","MEAN_ANOMALY":"271.1382","OBJECT_TYPE":"PAYLOAD","GP_ID":"189527127","TLE_LINE1":"1 47744U 21017Y   21315.66006394 -.00000244  00000-0  25198-5 0  9994","COUNTRY_CODE":"US","TLE_LINE2":"2 47744  53.0574  90.1625 0001249  88.9750 271.1382 15.06402628 39929","PERIAPSIS":"546.341","BSTAR":"0.00000251980000","MEAN_ELEMENT_THEORY":"SGP4","TIME_SYSTEM":"UTC","INCLINATION":"53.0574","EPOCH":"2021-11-11T15:50:29.524416","RCS_SIZE":"LARGE","APOAPSIS":"548.070","REV_AT_EPOCH":"3992","SEMIMAJOR_AXIS":"6925.341","ELEMENT_SET_NO":"999","PERIOD":"95.592","DECAY_DATE":null,"OBJECT_NAME":"STARLINK-2158","ECCENTRICITY":"0.00012490","SITE":"AFETR","RA_OF_ASC_NODE":"90.1625","REF_FRAME":"TEME","MEAN_MOTION":"15.06402628","MEAN_MOTION_DDOT":"0.0000000000000","ARG_OF_PERICENTER":"88.9750","CENTER_NAME":"EARTH","MEAN_MOTION_DOT":"-0.00000244"},{"PERIOD":"95.591","ELEMENT_SET_NO":"999","SEMIMAJOR_AXIS":"6925.302","APOAPSIS":"548.258","REV_AT_EPOCH":"3973","RCS_SIZE":"LARGE","EPOCH":"2021-11-11T16:31:38.451936","INCLINATION":"53.0544","TIME_SYSTEM":"UTC","CENTER_NAME":"EARTH","MEAN_MOTION_DOT":"-0.00003290","RA_OF_ASC_NODE":"100.0430","SITE":"AFETR","MEAN_MOTION_DDOT":"0.0000000000000","ARG_OF_PERICENTER":"79.9355","MEAN_MOTION":"15.06415353","REF_FRAME":"TEME","DECAY_DATE":null,"ECCENTRICITY":"0.00015760","OBJECT_NAME":"STARLINK-2159","CLASSIFICATION_TYPE":"U","NORAD_CAT_ID":"47745","MEAN_ANOMALY":"280.1812","FILE":"3212485","EPHEMERIS_TYPE":"0","OBJECT_ID":"2021-017Z","LAUNCH_DATE":"2021-03-04","PERIAPSIS":"546.075","TLE_LINE2":"2 47745  53.0544 100.0430 0001576  79.9355 280.1812 15.06415353 39732","MEAN_ELEMENT_THEORY":"SGP4","BSTAR":"-0.00020199000000","COUNTRY_CODE":"US","TLE_LINE1":"1 47745U 21017Z   21315.68863949 -.00003290  00000-0 -20199-3 0  9993","GP_ID":"189527378","OBJECT_TYPE":"PAYLOAD"},{"COUNTRY_CODE":"US","BSTAR":"-0.00002701200000","MEAN_ELEMENT_THEORY":"SGP4","PERIAPSIS":"546.392","TLE_LINE2":"2 47746  53.0555  99.1564 0001170  86.9029 273.2094 15.06403758 39750","OBJECT_TYPE":"PAYLOAD","TLE_LINE1":"1 47746U 21017AA  21315.88031639 -.00000684  00000-0 -27012-4 0  9995","GP_ID":"189526126","OBJECT_ID":"2021-017AA","EPHEMERIS_TYPE":"0","MEAN_ANOMALY":"273.2094","NORAD_CAT_ID":"47746","FILE":"3212485","CLASSIFICATION_TYPE":"U","LAUNCH_DATE":"2021-03-04","MEAN_MOTION_DOT":"-0.00000684","CENTER_NAME":"EARTH","DECAY_DATE":null,"OBJECT_NAME":"STARLINK-2160","ECCENTRICITY":"0.00011700","ARG_OF_PERICENTER":"86.9029","MEAN_MOTION_DDOT":"0.0000000000000","REF_FRAME":"TEME","MEAN_MOTION":"15.06403758","RA_OF_ASC_NODE":"99.1564","SITE":"AFETR","ELEMENT_SET_NO":"999","SEMIMAJOR_AXIS":"6925.337","APOAPSIS":"548.012","REV_AT_EPOCH":"3975","PERIOD":"95.592","TIME_SYSTEM":"UTC","INCLINATION":"53.0555","RCS_SIZE":"LARGE","EPOCH":"2021-11-11T21:07:39.336096"},{"ELEMENT_SET_NO":"999","SEMIMAJOR_AXIS":"6925.325","REV_AT_EPOCH":"3990","APOAPSIS":"548.144","PERIOD":"95.592","TIME_SYSTEM":"UTC","INCLINATION":"53.0578","RCS_SIZE":"LARGE","EPOCH":"2021-11-11T16:17:03.029856","CENTER_NAME":"EARTH","MEAN_MOTION_DOT":"0.00001423","ECCENTRICITY":"0.00013780","DECAY_DATE":null,"OBJECT_NAME":"STARLINK-2161","RA_OF_ASC_NODE":"90.0814","SITE":"AFETR","MEAN_MOTION_DDOT":"0.0000000000000","ARG_OF_PERICENTER":"87.0455","REF_FRAME":"TEME","MEAN_MOTION":"15.06407781","EPHEMERIS_TYPE":"0","OBJECT_ID":"2021-017AB","CLASSIFICATION_TYPE":"U","NORAD_CAT_ID":"47747","MEAN_ANOMALY":"273.0691","FILE":"3212485","LAUNCH_DATE":"2021-03-04","COUNTRY_CODE":"US","PERIAPSIS":"546.235","TLE_LINE2":"2 47747  53.0578  90.0814 0001378  87.0455 273.0691 15.06407781 39907","BSTAR":"0.00011440000000","MEAN_ELEMENT_THEORY":"SGP4","OBJECT_TYPE":"PAYLOAD","TLE_LINE1":"1 47747U 21017AB  21315.67850729  .00001423  00000-0  11440-3 0  9999","GP_ID":"189526376"}];
